{
    "links": {
        "self": "http://www.neowsapp.com/rest/v1/neo/54054361?api_key=iIulBulltgU6a56xZRHN4H3l9WmuAYTsLGpBGhQ2"
    },
    "id": "54054361",
    "neo_reference_id": "54054361",
    "name": "(2020 RR7)",
    "designation": "2020 RR7",
    "nasa_jpl_url": "http://ssd.jpl.nasa.gov/sbdb.cgi?sstr=54054361",
    "absolute_magnitude_h": 24.291,
    "estimated_diameter": {
        "kilometers": {
            "estimated_diameter_min": 0.0368429992,
            "estimated_diameter_max": 0.0823834507
        },
        "meters": {
            "estimated_diameter_min": 36.8429991959,
            "estimated_diameter_max": 82.383450697
        },
        "miles": {
            "estimated_diameter_min": 0.0228931713,
            "estimated_diameter_max": 0.0511906871
        },
        "feet": {
            "estimated_diameter_min": 120.8759854819,
            "estimated_diameter_max": 270.2869203848
        }
    },
    "is_potentially_hazardous_asteroid": false,
    "close_approach_data": [
        {
            "close_approach_date": "2020-09-02",
            "close_approach_date_full": "2020-Sep-02 11:09",
            "epoch_date_close_approach": 1599044940000,
            "relative_velocity": {
                "kilometers_per_second": "9.8210039822",
                "kilometers_per_hour": "35355.6143359158",
                "miles_per_hour": "21968.6038077806"
            },
            "miss_distance": {
                "astronomical": "0.0344270435",
                "lunar": "13.3921199215",
                "kilometers": "5150212.377997345",
                "miles": "3200193.576739561"
            },
            "orbiting_body": "Earth"
        },
        {
            "close_approach_date": "2020-11-09",
            "close_approach_date_full": "2020-Nov-09 15:25",
            "epoch_date_close_approach": 1604935500000,
            "relative_velocity": {
                "kilometers_per_second": "10.8356309431",
                "kilometers_per_hour": "39008.2713950516",
                "miles_per_hour": "24238.2228565531"
            },
            "miss_distance": {
                "astronomical": "0.0629938153",
                "lunar": "24.5045941517",
                "kilometers": "9423740.592053411",
                "miles": "5855640.8742266318"
            },
            "orbiting_body": "Mars"
        }
    ],
    "orbital_data": {
        "orbit_id": "6",
        "orbit_determination_date": "2020-10-09 08:11:56",
        "first_observation_date": "2020-09-15",
        "last_observation_date": "2020-10-08",
        "data_arc_in_days": 23,
        "observations_used": 45,
        "orbit_uncertainty": "8",
        "minimum_orbit_intersection": ".00992004",
        "jupiter_tisserand_invariant": "3.853",
        "epoch_osculation": "2459109.5",
        "eccentricity": ".4912816219841449",
        "semi_major_axis": "1.847899573868685",
        "inclination": "2.1749822462277",
        "ascending_node_longitude": "277.5659500720433",
        "orbital_period": "917.5209192469199",
        "perihelion_distance": ".9400604739546672",
        "perihelion_argument": "24.48946852612701",
        "aphelion_distance": "2.755738673782703",
        "perihelion_time": "2459064.932409187828",
        "mean_anomaly": "17.48661240939416",
        "mean_motion": ".3923616262564125",
        "equinox": "J2000",
        "orbit_class": {
            "orbit_class_type": "APO",
            "orbit_class_description": "Near-Earth asteroid orbits which cross the Earth’s orbit similar to that of 1862 Apollo",
            "orbit_class_range": "a (semi-major axis) > 1.0 AU; q (perihelion) < 1.017 AU"
        }
    },
    "is_sentry_object": false
}